[{"OBJECT_NAME":"STARLINK-3593","OBJECT_ID":"2022-022AW","EPOCH":"2026-03-09T22:53:38.368320","MEAN_MOTION":15.08834291,"ECCENTRICITY":0.00012848,"INCLINATION":53.2185,"RA_OF_ASC_NODE":358.1555,"ARG_OF_PERICENTER":88.9772,"MEAN_ANOMALY":271.1368,"EPHEMERIS_TYPE":0,"CLASSIFICATION_TYPE":"U","NORAD_CAT_ID":51896,"ELEMENT_SET_NO":999,"REV_AT_EPOCH":22333,"BSTAR":-1.61995e-6,"MEAN_MOTION_DOT":-3.14e-6,"MEAN_MOTION_DDOT":0},{"OBJECT_NAME":"OBJECT M","OBJECT_ID":"2017-042M","EPOCH":"2026-03-09T22:38:39.337440","MEAN_MOTION":15.07991931,"ECCENTRICITY":0.0005117,"INCLINATION":97.4139,"RA_OF_ASC_NODE":234.2602,"ARG_OF_PERICENTER":83.1417,"MEAN_ANOMALY":277.0393,"EPHEMERIS_TYPE":0,"CLASSIFICATION_TYPE":"U","NORAD_CAT_ID":42836,"ELEMENT_SET_NO":999,"REV_AT_EPOCH":47205,"BSTAR":0.00047182615,"MEAN_MOTION_DOT":7.201e-5,"MEAN_MOTION_DDOT":0}]
